NORAD_CAT_ID,OBJECT_NAME,OBJECT_TYPE,EPOCH,MEAN_MOTION,ECCENTRICITY,INCLINATION,RA_OF_ASC_NODE,ARG_OF_PERICENTER,MEAN_ANOMALY,BSTAR,MEAN_MOTION_DOT,MEAN_MOTION_DDOT,TLE_LINE0,TLE_LINE1,TLE_LINE2,SEMIMAJOR_AXIS,PERIOD,APOGEE,PERIGEE,DECAYED
54177.0,STARLINK-5186,PAYLOAD,2024-02-14 12:20:05,15.0885087,0.0001613,53.2152,149.6805,84.5291,275.5885,0.00035825,5.42e-05,0.0,0 STARLINK-5186,1 54177U 22141W   24045.51395702  .00005420  00000-0  35825-3 0  9998,2 54177  53.2152 149.6805 0001613  84.5291 275.5885 15.08850870 72008,6917.847,95.437,540.828,538.596,0.0
54177.0,STARLINK-5186,PAYLOAD,2024-02-14 13:55:29,15.08855142,0.0001537,53.2154,149.3863,90.2583,269.8585,0.00060692,9.388e-05,0.0,0 STARLINK-5186,1 54177U 22141W   24045.58019692  .00009388  00000-0  60692-3 0  9993,2 54177  53.2154 149.3863 0001537  90.2583 269.8585 15.08855142 72015,6917.834,95.437,540.762,538.636,0.0
54177.0,STARLINK-5186,PAYLOAD,2024-02-14 23:27:48,15.08846426,0.0001399,53.2149,147.6005,84.0874,276.0277,0.00059383,9.177e-05,0.0,0 STARLINK-5186,1 54177U 22141W   24045.97763960  .00009177  00000-0  59383-3 0  9991,2 54177  53.2149 147.6005 0001399  84.0874 276.0277 15.08846426 72077,6917.861,95.437,540.694,538.758,0.0
54177.0,STARLINK-5186,PAYLOAD,2024-02-15 12:10:53,15.08827395,0.0001271,53.2152,145.2229,97.7406,262.3731,-0.00013571,-2.446e-05,0.0,0 STARLINK-5186,1 54177U 22141W   24046.50756462 -.00002446  00000-0 -13571-3 0  9993,2 54177  53.2152 145.2229 0001271  97.7406 262.3731 15.08827395 72150,6917.919,95.438,540.663,538.905,0.0
54177.0,STARLINK-5186,PAYLOAD,2024-02-16 12:01:40,15.08863744,0.0001253,53.2154,140.7633,93.1546,266.9589,0.0015442,0.00024389,0.0,0 STARLINK-5186,1 54177U 22141W   24047.50116557  .00024389  00000-0  15442-2 0  9995,2 54177  53.2154 140.7633 0001253  93.1546 266.9589 15.08863744 72302,6917.808,95.436,540.54,538.806,0.0
54177.0,STARLINK-5186,PAYLOAD,2024-02-16 13:37:03,15.08866255,0.0001177,53.215,140.4657,89.5469,270.5658,0.0015221,0.00024037,0.0,0 STARLINK-5186,1 54177U 22141W   24047.56740433  .00024037  00000-0  15221-2 0  9992,2 54177  53.2150 140.4657 0001177  89.5469 270.5658 15.08866255 72318,6917.8,95.436,540.479,538.851,0.0
54177.0,STARLINK-5186,PAYLOAD,2024-02-16 15:12:26,15.08871481,0.0001215,53.2153,140.1683,89.9939,270.1193,0.0016225,0.00025651,0.0,0 STARLINK-5186,1 54177U 22141W   24047.63364271  .00025651  00000-0  16225-2 0  9990,2 54177  53.2153 140.1683 0001215  89.9939 270.1193 15.08871481 72324,6917.784,95.436,540.49,538.809,0.0
54177.0,STARLINK-5186,PAYLOAD,2024-02-17 11:52:28,15.0884233,0.0001051,53.2152,136.3024,95.481,264.6302,0.0012615,0.00019847,0.0,0 STARLINK-5186,1 54177U 22141W   24048.49477009  .00019847  00000-0  12615-2 0  9998,2 54177  53.2152 136.3024 0001051  95.4810 264.6302 15.08842330 72452,6917.873,95.437,540.465,539.011,0.0
54177.0,STARLINK-5186,PAYLOAD,2024-02-17 13:27:51,15.08838967,0.0001252,53.215,136.0058,100.5989,259.5144,0.0010689,0.00016764,0.0,0 STARLINK-5186,1 54177U 22141W   24048.56101076  .00016764  00000-0  10689-2 0  9998,2 54177  53.2150 136.0058 0001252 100.5989 259.5144 15.08838967 72461,6917.884,95.438,540.615,538.882,0.0
54177.0,STARLINK-5186,PAYLOAD,2024-02-17 15:03:14,15.0884322,0.0001087,53.215,135.7069,99.7783,260.3332,0.0012205,0.00019191,0.0,0 STARLINK-5186,1 54177U 22141W   24048.62724993  .00019191  00000-0  12205-2 0  9997,2 54177  53.2150 135.7069 0001087  99.7783 260.3332 15.08843220 72474,6917.871,95.437,540.488,538.984,0.0
54177.0,STARLINK-5186,PAYLOAD,2024-02-17 23:00:10,15.08827583,0.0001214,53.2163,134.2163,96.13,263.9831,0.0018734,0.00029643,0.0,0 STARLINK-5186,1 54177U 22141W   24048.95844961  .00029643  00000-0  18734-2 0  9997,2 54177  53.2163 134.2163 0001214  96.1300 263.9831 15.08827583 72528,6917.918,95.438,540.623,538.944,0.0
54177.0,STARLINK-5186,PAYLOAD,2024-02-18 11:43:14,15.088548,0.0001109,53.2138,131.8394,97.3476,262.7642,0.00080564,0.00012562,0.0,0 STARLINK-5186,1 54177U 22141W   24049.48836776  .00012562  00000-0  80564-3 0  9994,2 54177  53.2138 131.8394 0001109  97.3476 262.7642 15.08854800 72607,6917.835,95.437,540.467,538.933,0.0
54177.0,STARLINK-5186,PAYLOAD,2024-02-18 22:50:56,15.0885412,0.000117,53.2127,129.7596,87.1893,272.9233,0.00044869,6.863e-05,0.0,0 STARLINK-5186,1 54177U 22141W   24049.95204502  .00006863  00000-0  44869-3 0  9997,2 54177  53.2127 129.7596 0001170  87.1893 272.9233 15.08854120 72674,6917.837,95.437,540.512,538.893,0.0
54177.0,STARLINK-5186,PAYLOAD,2024-02-19 11:34:02,15.08841295,0.0001453,53.2152,127.3782,108.3743,251.7408,8.3725e-05,1.045e-05,0.0,0 STARLINK-5186,1 54177U 22141W   24050.48196909  .00001045  00000-0  83725-4 0  9990,2 54177  53.2152 127.3782 0001453 108.3743 251.7408 15.08841295 72754,6917.876,95.437,540.747,538.736,0.0
54177.0,STARLINK-5186,PAYLOAD,2024-02-20 11:24:49,15.08840504,0.0001504,53.2161,122.9187,109.3713,250.7442,-3.1829e-05,-7.95e-06,0.0,0 STARLINK-5186,1 54177U 22141W   24051.47557214 -.00000795  00000-0 -31829-4 0  9991,2 54177  53.2161 122.9187 0001504 109.3713 250.7442 15.08840504 72905,6917.879,95.438,540.784,538.703,0.0
54177.0,STARLINK-5186,PAYLOAD,2024-02-21 11:15:36,15.08847579,0.0001372,53.2165,118.4616,95.9917,264.1232,0.00031495,4.729e-05,0.0,0 STARLINK-5186,1 54177U 22141W   24052.46917078  .00004729  00000-0  31495-3 0  9996,2 54177  53.2165 118.4616 0001372  95.9917 264.1232 15.08847579 73057,6917.857,95.437,540.671,538.773,0.0
54177.0,STARLINK-5186,PAYLOAD,2024-02-21 20:47:55,15.08842592,0.0001332,53.2142,116.675,93.8224,266.292,0.00011748,1.582e-05,0.0,0 STARLINK-5186,1 54177U 22141W   24052.86661110  .00001582  00000-0  11748-3 0  9996,2 54177  53.2142 116.6750 0001332  93.8224 266.2920 15.08842592 73119,6917.872,95.437,540.659,538.816,0.0
54177.0,STARLINK-5186,PAYLOAD,2024-02-22 04:44:51,15.08838602,0.0001644,53.2177,115.1908,96.6368,263.4811,7.8783e-05,9.66e-06,0.0,0 STARLINK-5186,1 54177U 22141W   24053.19781531  .00000966  00000-0  78783-4 0  9991,2 54177  53.2177 115.1908 0001644  96.6368 263.4811 15.08838602 73162,6917.885,95.438,540.887,538.612,0.0
54177.0,STARLINK-5186,PAYLOAD,2024-02-22 11:06:23,15.08839902,0.0001617,53.2175,114.0014,97.2338,262.8838,8.547e-05,1.072e-05,0.0,0 STARLINK-5186,1 54177U 22141W   24053.46277497  .00001072  00000-0  85470-4 0  9992,2 54177  53.2175 114.0014 0001617  97.2338 262.8838 15.08839902 73201,6917.881,95.438,540.864,538.627,0.0
54177.0,STARLINK-5186,PAYLOAD,2024-02-23 10:57:10,15.08845377,0.0001615,53.2165,109.54,103.5867,256.5305,4.9998e-05,5.08e-06,0.0,0 STARLINK-5186,1 54177U 22141W   24054.45637019  .00000508  00000-0  49998-4 0  9990,2 54177  53.2165 109.5400 0001615 103.5867 256.5305 15.08845377 73352,6917.864,95.437,540.846,538.612,0.0
54177.0,STARLINK-5186,PAYLOAD,2024-02-23 20:29:29,15.08843606,0.0001411,53.2151,107.754,88.3441,271.7712,2.5981e-05,1.26e-06,0.0,0 STARLINK-5186,1 54177U 22141W   24054.85381107  .00000126  00000-0  25981-4 0  9990,2 54177  53.2151 107.7540 0001411  88.3441 271.7712 15.08843606 73415,6917.869,95.437,540.71,538.758,0.0
54177.0,STARLINK-5186,PAYLOAD,2024-02-24 10:47:58,15.08832728,0.0001575,53.2159,105.0786,97.7246,262.3925,-2.8198e-05,-7.37e-06,0.0,0 STARLINK-5186,1 54177U 22141W   24055.44997970 -.00000737  00000-0 -28198-4 0  9990,2 54177  53.2159 105.0786 0001575  97.7246 262.3925 15.08832728 73509,6917.903,95.438,540.857,538.678,0.0
54177.0,STARLINK-5186,PAYLOAD,2024-02-24 12:23:21,15.08836936,0.0001648,53.2176,104.7808,99.0544,261.0635,6.5675e-05,7.57e-06,0.0,0 STARLINK-5186,1 54177U 22141W   24055.51622129  .00000757  00000-0  65675-4 0  9990,2 54177  53.2176 104.7808 0001648  99.0544 261.0635 15.08836936 73516,6917.89,95.438,540.895,538.615,0.0
54177.0,STARLINK-5186,PAYLOAD,2024-02-24 20:20:16,15.08843098,0.0001569,53.217,103.2941,91.6283,268.4889,6.7016e-05,7.79e-06,0.0,0 STARLINK-5186,1 54177U 22141W   24055.84741761  .00000779  00000-0  67016-4 0  9995,2 54177  53.2170 103.2941 0001569  91.6283 268.4889 15.08843098 73566,6917.871,95.437,540.821,538.651,0.0
54177.0,STARLINK-5186,PAYLOAD,2024-02-25 02:41:49,15.08840015,0.0001559,53.2177,102.1039,96.6509,263.4661,0.00017351,2.474e-05,0.0,0 STARLINK-5186,1 54177U 22141W   24056.11237667  .00002474  00000-0  17351-3 0  9991,2 54177  53.2177 102.1039 0001559  96.6509 263.4661 15.08840015 73608,6917.88,95.438,540.824,538.667,0.0
54177.0,STARLINK-5186,PAYLOAD,2024-02-25 10:38:44,15.08852943,0.0001485,53.2165,100.6174,84.1337,275.9825,0.00014945,2.092e-05,0.0,0 STARLINK-5186,1 54177U 22141W   24056.44356807  .00002092  00000-0  14945-3 0  9997,2 54177  53.2165 100.6174 0001485  84.1337 275.9825 15.08852943 73655,6917.841,95.437,540.733,538.679,0.0
54177.0,STARLINK-5186,PAYLOAD,2024-02-25 20:11:03,15.08845384,0.0001418,53.2169,98.8321,82.9366,277.1787,0.00012308,1.672e-05,0.0,0 STARLINK-5186,1 54177U 22141W   24056.84101236  .00001672  00000-0  12308-3 0  9999,2 54177  53.2169  98.8321 0001418  82.9366 277.1787 15.08845384 73714,6917.864,95.437,540.71,538.748,0.0
54177.0,STARLINK-5186,PAYLOAD,2024-02-26 08:54:08,15.0884322,0.0001473,53.2172,96.4515,85.5658,274.5503,0.00010831,1.436e-05,0.0,0 STARLINK-5186,1 54177U 22141W   24057.37093503  .00001436  00000-0  10831-3 0  9992,2 54177  53.2172  96.4515 0001473  85.5658 274.5503 15.08843220 73793,6917.871,95.437,540.755,538.717,0.0
54177.0,STARLINK-5186,PAYLOAD,2024-02-27 11:55:41,15.08850687,0.0001509,53.2162,91.3956,88.7145,271.402,-4.2993e-06,-3.56e-06,0.0,0 STARLINK-5186,1 54177U 22141W   24058.49700967 -.00000356  00000-0 -42993-5 0  9993,2 54177  53.2162  91.3956 0001509  88.7145 271.4020 15.08850687 73965,6917.848,95.437,540.757,538.669,0.0
54177.0,STARLINK-5186,PAYLOAD,2024-02-28 02:14:10,15.08834354,0.000146,53.2151,88.718,87.1891,272.9269,2.064e-05,4e-07,0.0,0 STARLINK-5186,1 54177U 22141W   24059.09317929  .00000040  00000-0  20640-4 0  9994,2 54177  53.2151  88.7180 0001460  87.1891 272.9269 15.08834354 74054,6917.898,95.438,540.773,538.753,0.0
